      2.10          N: GNSS NAV DATA                        RINEX VERSION / TYPE
fic2rin                                 01/23/2023 00:17:32 PGM / RUN BY / DATE
                                                            END OF HEADER
10 23  1 22  1 59 44.0 -.214031897485D-04 -.159161572810D-11  .000000000000D+00
     .400000000000D+02 -.162468750000D+03  .421731852539D-08 -.443247218409D+00
    -.847876071930D-05  .843225931749D-02  .375136733055D-05  .515369033432D+04
     .718400000000D+04  .558793544769D-07 -.730107434991D+00  .150874257088D-06
     .977087226142D+00  .315125000000D+03 -.245701979900D+01 -.830927468607D-08
    -.460733477113D-09  .100000000000D+01  .224600000000D+04  .000000000000D+00
     .240000000000D+01  .000000000000D+00  .232830643654D-08  .400000000000D+02
     .000000000000D+00  .400000000000D+01
27 23  1 22  1 59 44.0  .121196731925D-03 -.932232069317D-11  .000000000000D+00
     .500000000000D+01  .143250000000D+03  .393302096897D-08 -.240847440592D+01
     .720843672752D-05  .111693133367D-01  .121742486954D-04  .515367020798D+04
     .718400000000D+04  .819563865662D-07 -.282559438288D+01 -.141561031342D-06
     .969653399145D+00  .147937500000D+03  .689518154067D+00 -.755210028958D-08
     .321441960776D-10  .100000000000D+01  .224600000000D+04  .000000000000D+00
     .240000000000D+01  .000000000000D+00  .186264514923D-08  .500000000000D+01
     .000000000000D+00  .400000000000D+01
26 23  1 22  1 59 44.0  .240639317781D-03  .454747350886D-12  .000000000000D+00
     .900000000000D+01 -.256875000000D+02  .541665419682D-08 -.640152511596D+00
    -.127032399178D-05  .780473148916D-02  .772811472416D-05  .515361666870D+04
     .718400000000D+04  .130385160446D-06  .234990172320D+01  .223517417908D-07
     .934902694496D+00  .214125000000D+03  .436349904914D+00 -.840213569696D-08
    -.658598861858D-09  .100000000000D+01  .224600000000D+04  .000000000000D+00
     .240000000000D+01  .000000000000D+00  .698491930962D-08  .900000000000D+01
     .000000000000D+00  .400000000000D+01
2  23  1 22  2  0  0.0 -.625851564109D-03  .238742359215D-11  .000000000000D+00
     .820000000000D+02  .100312500000D+03  .487377444084D-08  .651575843469D+00
     .501051545143D-05  .200955617474D-01  .707805156708D-06  .515368632507D+04
     .720000000000D+04 -.216066837311D-06 -.185591938082D+01 -.253319740295D-06
     .966809836036D+00  .374406250000D+03 -.133699614748D+01 -.893501503638D-08
     .199651173416D-09  .100000000000D+01  .224600000000D+04  .000000000000D+00
     .240000000000D+01  .000000000000D+00 -.176951289177D-07  .820000000000D+02
     .000000000000D+00  .400000000000D+01
1  23  1 22  2  0  0.0  .221515074372D-03 -.466116034659D-11  .000000000000D+00
     .780000000000D+02  .897812500000D+02  .426482050404D-08  .162966050764D+01
     .447593629360D-05  .122401050758D-01  .435858964920D-06  .515365126419D+04
     .720000000000D+04 -.324100255966D-06 -.175960424553D+01  .167638063431D-07
     .989059523876D+00  .386593750000D+03  .938178132965D+00 -.832998983466D-08
     .188222125921D-09  .100000000000D+01  .224600000000D+04  .000000000000D+00
     .340000000000D+01  .000000000000D+00  .465661287308D-08  .780000000000D+02
     .000000000000D+00  .400000000000D+01
3  23  1 22  2  0  0.0 -.370618887246D-03  .272848410532D-11  .000000000000D+00
     .500000000000D+02 -.151687500000D+03  .414052961254D-08  .482140128786D+00
    -.797957181931D-05  .442969892174D-02  .407919287682D-05  .515374225235D+04
     .720000000000D+04 -.521540641785D-07 -.727431711011D+00  .931322574615D-08
     .977328718807D+00  .309093750000D+03  .102817047780D+01 -.814498212834D-08
    -.387158983869D-09  .100000000000D+01  .224600000000D+04  .000000000000D+00
     .240000000000D+01  .000000000000D+00  .186264514923D-08  .500000000000D+02
     .000000000000D+00  .400000000000D+01
8  23  1 22  2  0  0.0 -.104736071080D-03 -.181898940355D-11  .000000000000D+00
     .150000000000D+02  .130437500000D+03  .419588906134D-08 -.240420304354D+01
     .660493969917D-05  .820384256076D-02  .121835619211D-04  .515365300369D+04
     .720000000000D+04 -.745058059692D-07 -.284786098937D+01 -.128522515297D-06
     .960812838900D+00  .146843750000D+03  .195777144892D+00 -.771103548129D-08
    -.314298806093D-10  .100000000000D+01  .224600000000D+04  .000000000000D+00
     .240000000000D+01  .000000000000D+00  .512227416039D-08  .150000000000D+02
     .000000000000D+00  .400000000000D+01
7  23  1 22  2  0  0.0  .254810787737D-03 -.648014975013D-11  .000000000000D+00
     .250000000000D+02  .235312500000D+02  .531450708484D-08  .102912213820D+01
     .133179128170D-05  .166220953688D-01  .597909092903D-05  .515358814812D+04
     .720000000000D+04 -.206753611565D-06  .136935714034D+01  .160187482834D-06
     .949982151233D+00  .262093750000D+03 -.222956224439D+01 -.858750056101D-08
     .285011871888D-09  .100000000000D+01  .224600000000D+04  .000000000000D+00
     .240000000000D+01  .000000000000D+00 -.111758708954D-07  .250000000000D+02
     .000000000000D+00  .400000000000D+01
5  23  1 22  2  0  0.0 -.112900976092D-03 -.147792889038D-11  .000000000000D+00
     .650000000000D+02 -.169000000000D+03  .436125309227D-08 -.208809145666D+01
    -.868365168571D-05  .578025402501D-02  .389292836189D-05  .515360634995D+04
     .720000000000D+04  .521540641785D-07 -.772345313408D+00  .260770320892D-07
     .964321479677D+00  .304125000000D+03  .113687707051D+01 -.818998400285D-08
    -.373586989969D-09  .100000000000D+01  .224600000000D+04  .000000000000D+00
     .240000000000D+01  .000000000000D+00 -.111758708954D-07  .650000000000D+02
     .000000000000D+00  .400000000000D+01
6  23  1 22  2  0  0.0  .562104862183D-03  .568434188608D-11  .000000000000D+00
     .840000000000D+02  .741250000000D+02  .420553232016D-08  .189458976673D+01
     .400841236115D-05  .286999798845D-02 -.566244125366D-06  .515359563637D+04
     .720000000000D+04  .819563865662D-07 -.176790708975D+01 -.204890966415D-07
     .988322145870D+00  .400718750000D+03 -.869074167787D+00 -.824784355579D-08
     .992898501065D-10  .100000000000D+01  .224600000000D+04  .000000000000D+00
     .240000000000D+01  .000000000000D+00  .372529029846D-08  .840000000000D+02
     .000000000000D+00  .400000000000D+01
4  23  1 22  2  0  0.0 -.438629649580D-04  .773070496507D-11  .000000000000D+00
     .192000000000D+03 -.571250000000D+02  .408659879467D-08 -.283410305968D+01
    -.296346843243D-05  .228969787713D-02  .122971832752D-04  .515372696495D+04
     .720000000000D+04  .260770320892D-07  .353365284385D+00 -.279396772385D-07
     .962630598000D+00  .144968750000D+03 -.306949807424D+01 -.762246036321D-08
     .535736601294D-09  .100000000000D+01  .224600000000D+04  .000000000000D+00
     .240000000000D+01  .000000000000D+00 -.465661287308D-08  .192000000000D+03
     .000000000000D+00  .400000000000D+01
9  23  1 22  2  0  0.0 -.232291407883D-03  .670752342558D-11  .000000000000D+00
     .730000000000D+02 -.667812500000D+02  .426160608443D-08 -.208596217354D+01
    -.350177288055D-05  .256085488945D-02  .124201178551D-04  .515369487572D+04
     .720000000000D+04  .931322574615D-08  .297703172281D+00  .447034835815D-07
     .955868055833D+00  .138156250000D+03  .196454180600D+01 -.775282293619D-08
     .438232539859D-09  .100000000000D+01  .224600000000D+04  .000000000000D+00
     .240000000000D+01  .000000000000D+00  .139698386192D-08  .730000000000D+02
     .000000000000D+00  .400000000000D+01
21 23  1 22  2  0  0.0  .153596978635D-03  .227373675443D-12  .000000000000D+00
     .220000000000D+02  .126906250000D+03  .454018911710D-08 -.246668040529D+01
     .702030956745D-05  .248141346965D-01  .244006514549D-06  .515366429901D+04
     .720000000000D+04 -.894069671631D-07 -.185982778737D+01  .422820448875D-06
     .961142522118D+00  .376468750000D+03 -.832506132673D+00 -.810390898891D-08
     .291083553370D-09  .100000000000D+01  .224600000000D+04  .000000000000D+00
     .240000000000D+01  .000000000000D+00 -.102445483208D-07  .220000000000D+02
     .000000000000D+00  .400000000000D+01
22 23  1 22  2  0  0.0  .410916283727D-03  .795807864051D-11  .000000000000D+00
     .270000000000D+02 -.665937500000D+02  .398230873629D-08 -.268975148928D+01
    -.339746475220D-05  .137857024092D-01  .124182552099D-04  .515359447861D+04
     .720000000000D+04  .182539224625D-06  .401820454921D+00 -.204890966415D-07
     .962545349375D+00  .138500000000D+03 -.183246620733D+01 -.733173396758D-08
     .650384233971D-09  .100000000000D+01  .224600000000D+04  .000000000000D+00
     .240000000000D+01  .000000000000D+00 -.791624188423D-08  .270000000000D+02
     .000000000000D+00  .400000000000D+01
19 23  1 22  2  0  0.0  .267297029495D-03  .511590769747D-11  .000000000000D+00
     .240000000000D+02  .149218750000D+03  .398195157855D-08 -.325837443706D+00
     .784918665886D-05  .905211328063D-02  .995956361294D-05  .515360560226D+04
     .720000000000D+04 -.875443220139D-07 -.271620895376D+01 -.128522515297D-06
     .975224660787D+00  .199375000000D+03  .223187342966D+01 -.782246869436D-08
     .710743891050D-10  .100000000000D+01  .224600000000D+04  .000000000000D+00
     .240000000000D+01  .000000000000D+00 -.153668224812D-07  .240000000000D+02
     .000000000000D+00  .400000000000D+01
12 23  1 22  2  0  0.0 -.330957118422D-03 -.454747350886D-11  .000000000000D+00
     .650000000000D+02 -.121875000000D+01  .454090343257D-08  .242056504202D+00
    -.258907675743D-06  .885670445859D-02  .950321555138D-05  .515366744041D+04
     .720000000000D+04 -.670552253723D-07  .248404336450D+01  .279396772385D-07
     .966625022669D+00  .202187500000D+03  .132644200400D+01 -.795676000242D-08
    -.734316301507D-09  .100000000000D+01  .224600000000D+04  .000000000000D+00
     .340000000000D+01  .000000000000D+00 -.125728547573D-07  .650000000000D+02
     .000000000000D+00  .400000000000D+01
